ISS (ZARYA)             
1 25544U 98067A   26112.52244765  .00007653  00000+0  14744-3 0  9990
2 25544  51.6320 215.6072 0006766 337.8366  22.2329 15.48891662563120
POISK                   
1 36086U 09060A   26112.52244765  .00007653  00000+0  14744-3 0  9998
2 36086  51.6320 215.6072 0006766 337.8366  22.2329 15.48891662563088
CSS (TIANHE)            
1 48274U 21035A   26112.77525524  .00019657  00000+0  21506-3 0  9999
2 48274  41.4676 299.4845 0006659 256.0862 103.9237 15.62801892284507
ISS (NAUKA)             
1 49044U 21066A   26112.52244765  .00007653  00000+0  14744-3 0  9996
2 49044  51.6320 215.6072 0006766 337.8366  22.2329 15.48891662563121
FREGAT DEB              
1 49271U 11037PF  26111.21656224  .00003101  00000+0  47935-2 0  9998
2 49271  51.6429 173.0397 0943553 156.8872 207.7485 12.41014465217975
CSS (WENTIAN)           
1 53239U 22085A   26112.51963832  .00020309  00000+0  22216-3 0  9997
2 53239  41.4675 301.0443 0006639 253.8907 106.1202 15.62790711283132
CSS (MENGTIAN)          
1 54216U 22143A   26112.77525524  .00019657  00000+0  21506-3 0  9993
2 54216  41.4676 299.4845 0006659 256.0862 103.9237 15.62801892284487
TIANZHOU-9              
1 64786U 25149A   26112.77525524  .00019657  00000+0  21506-3 0  9995
2 64786  41.4676 299.4845 0006659 256.0862 103.9237 15.62801892284491
HRC MONOBLOCK CAMERA    
1 66052U 98067XR  26112.51484992  .00044462  00000+0  41223-3 0  9997
2 66052  51.6261 203.5420 0004588 320.0085  40.0572 15.67007001 29254
HTV-X1                  
1 66174U 25241A   26112.60100097  .00004002  00000+0  13624-3 0  9997
2 66174  51.6356 221.2924 0007819 342.6516  17.4197 15.32724114 27677
SZ-21 MODULE            
1 66515U 25246C   26112.76488071  .00029535  00000+0  22144-3 0  9994
2 66515  41.4735 291.3260 0004255 310.1381  49.9089 15.71947588 25006
SHENZHOU-22             
1 66645U 25272A   26112.77525524  .00019657  00000+0  21506-3 0  9998
2 66645  41.4676 299.4845 0006659 256.0862 103.9237 15.62801892284509
SOYUZ-MS 28             
1 66664U 25275A   26112.52244765  .00007653  00000+0  14744-3 0  9999
2 66664  51.6320 215.6072 0006766 337.8366  22.2329 15.48891662563364
DUPLEX                  
1 66906U 98067XS  26112.53320341  .00022718  00000+0  29226-3 0  9993
2 66906  51.6277 209.6788 0004465 329.2874  30.7857 15.58960795 21964
ISS OBJECT XT           
1 66907U 98067XT  26112.51263249  .00347235  56416-4  10600-2 0  9991
2 66907  51.6183 198.9334 0011912 345.9210  14.1462 15.91311151 22100
ISS OBJECT XU           
1 66908U 98067XU  26110.99509683  .00476464  97406-4  15071-2 0  9995
2 66908  51.6197 206.8010 0011661 338.6358  21.4160 15.90584480 21863
